63686,STARLINK-33880,2025-12-13T21:02:10.671360,2025-12-14T13:04:14.456627,43.0008,155.7365,0.0001902,272.7245,87.3389,15.27609246,10913-2,3585,1 63686U 25085Y   25347.87651240  .00029918  00000+0  10913-2 0  9997,2 63686  43.0008 155.7365 0001902 272.7245  87.3389 15.27609246 35850
63697,STARLINK-33894,2025-12-13T22:32:23.715168,2025-12-14T13:04:14.456627,53.1599,257.6647,0.000116,58.1666,301.9448,15.3019723,-82693-3,3607,1 63697U 25087A   25347.93916337 -.00024767  00000+0 -82693-3 0  9993,2 63697  53.1599 257.6647 0001160  58.1666 301.9448 15.30197230 36078
63698,STARLINK-33922,2025-12-13T22:26:20.349600,2025-12-14T13:04:14.456627,53.1605,257.6381,0.0001205,113.6701,246.4426,15.30205169,12824-2,3606,1 63698U 25087B   25347.93495775  .00037822  00000+0  12824-2 0  9994,2 63698  53.1605 257.6381 0001205 113.6701 246.4426 15.30205169 36068
63699,STARLINK-33919,2025-12-13T23:46:52.744800,2025-12-14T13:04:14.456627,53.159,257.9842,0.0001005,100.1562,259.9552,15.30200607,50619-3,3607,1 63699U 25087C   25347.99088825  .00014663  00000+0  50619-3 0  9998,2 63699  53.1590 257.9842 0001005 100.1562 259.9552 15.30200607 36073
63700,STARLINK-33908,2025-12-13T22:50:39.055488,2025-12-14T13:04:14.456627,53.1606,257.7402,0.0001014,44.0811,316.0271,15.30176777,14174-2,3607,1 63700U 25087D   25347.95184092  .00041827  00000+0  14174-2 0  9997,2 63700  53.1606 257.7402 0001014  44.0811 316.0271 15.30176777 36070
63701,STARLINK-33950,2025-12-13T23:17:59.822592,2025-12-14T13:04:14.456627,53.1588,257.8609,7.91e-05,65.5806,294.5277,15.30225162,31667-3,3607,1 63701U 25087E   25347.97083128  .00009038  00000+0  31667-3 0  9993,2 63701  53.1588 257.8609 0000791  65.5806 294.5277 15.30225162 36072
63702,STARLINK-33939,2025-12-13T23:13:26.680224,2025-12-14T13:04:14.456627,53.1591,257.8396,8.78e-05,87.3376,272.7725,15.3018996,14206-2,3607,1 63702U 25087F   25347.96766991  .00041940  00000+0  14206-2 0  9996,2 63702  53.1591 257.8396 0000878  87.3376 272.7725 15.30189960 36071
63703,STARLINK-33868,2025-12-13T22:56:43.472544,2025-12-14T13:04:14.456627,53.1599,257.7634,0.0001096,119.9538,240.1572,15.30232605,69553-3,3607,1 63703U 25087G   25347.95605871  .00020318  00000+0  69553-3 0  9997,2 63703  53.1599 257.7634 0001096 119.9538 240.1572 15.30232605 36073
63704,STARLINK-33937,2025-12-13T22:21:45.024768,2025-12-14T13:04:14.456627,53.1595,257.6146,0.0006604,164.3218,195.7988,15.30264456,14879-2,3607,1 63704U 25087H   25347.93177112  .00044081  00000+0  14879-2 0  9991,2 63704  53.1595 257.6146 0006604 164.3218 195.7988 15.30264456 36071
63705,STARLINK-33848,2025-12-13T22:38:30.356160,2025-12-14T13:04:14.456627,53.1612,257.6856,0.0002449,325.2408,34.8432,15.30135128,12281-2,3606,1 63705U 25087J   25347.94340690  .00036120  00000+0  12281-2 0  9996,2 63705  53.1612 257.6856 0002449 325.2408  34.8432 15.30135128 36061
63706,STARLINK-33995,2025-12-13T23:39:17.032320,2025-12-14T13:04:14.456627,53.1576,257.9485,0.0001711,32.5204,327.5901,15.30193072,-39084-3,3607,1 63706U 25087K   25347.98561380 -.00011914  00000+0 -39084-3 0  9999,2 63706  53.1576 257.9485 0001711  32.5204 327.5901 15.30193072 36071
63707,STARLINK-33982,2025-12-13T22:47:36.824928,2025-12-14T13:04:14.456627,53.1609,257.7241,0.0001916,341.6473,18.4459,15.30192086,13141-2,3607,1 63707U 25087L   25347.94973177  .00038756  00000+0  13141-2 0  9993,2 63707  53.1609 257.7241 0001916 341.6473  18.4459 15.30192086 36074
63708,STARLINK-33915,2025-12-13T23:04:19.489152,2025-12-14T13:04:14.456627,53.1596,257.7991,9.98e-05,64.9779,295.1326,15.30156989,13721-2,3607,1 63708U 25087M   25347.96133668  .00040446  00000+0  13721-2 0  9992,2 63708  53.1596 257.7991 0000998  64.9779 295.1326 15.30156989 36074
63709,STARLINK-33862,2025-12-13T22:55:12.830304,2025-12-14T13:04:14.456627,53.1603,257.7585,0.000137,88.8571,271.2587,15.30203814,40681-3,3607,1 63709U 25087N   25347.95500961  .00011710  00000+0  40681-3 0  9994,2 63709  53.1603 257.7585 0001370  88.8571 271.2587 15.30203814 36077
63710,STARLINK-33920,2025-12-13T23:28:38.613216,2025-12-14T13:04:14.456627,53.1575,257.9046,0.0001368,41.6458,318.4647,15.30197861,-70813-3,3607,1 63710U 25087P   25347.97822469 -.00021271  00000+0 -70813-3 0  9993,2 63710  53.1575 257.9046 0001368  41.6458 318.4647 15.30197861 36074
63711,STARLINK-33580,2025-12-13T23:42:18.980352,2025-12-14T13:04:14.456627,53.1577,257.9639,0.0001425,84.2418,275.8746,15.30121115,93434-3,3607,1 63711U 25087Q   25347.98771968  .00027348  00000+0  93434-3 0  9995,2 63711  53.1577 257.9639 0001425  84.2418 275.8746 15.30121115 36073
63712,STARLINK-33783,2025-12-13T23:25:36.839712,2025-12-14T13:04:14.456627,53.1576,257.889,0.0001492,63.8226,296.2928,15.30141955,15508-2,3607,1 63712U 25087R   25347.97612083  .00045772  00000+0  15508-2 0  9993,2 63712  53.1576 257.8890 0001492  63.8226 296.2928 15.30141955 36078
63713,STARLINK-33773,2025-12-13T22:35:27.148416,2025-12-14T13:04:14.456627,53.1613,257.6716,0.0001311,324.5175,35.5739,15.30186487,13061-2,3607,1 63713U 25087S   25347.94128644  .00038508  00000+0  13061-2 0  9997,2 63713  53.1613 257.6716 0001311 324.5175  35.5739 15.30186487 36079
63714,STARLINK-33745,2025-12-13T22:30:54.173664,2025-12-14T13:04:14.456627,53.1614,257.6514,0.0001337,45.3172,314.7938,15.30141656,13110-2,3607,1 63714U 25087T   25347.93812701  .00038600  00000+0  13110-2 0  9999,2 63714  53.1614 257.6514 0001337  45.3172 314.7938 15.30141656 36072
63715,STARLINK-33728,2025-12-13T22:41:32.074368,2025-12-14T13:04:14.456627,53.1626,257.6928,4.93e-05,115.8605,244.2447,15.30184377,93094-3,3607,1 63715U 25087U   25347.94551012  .00027301  00000+0  93094-3 0  9992,2 63715  53.1626 257.6928 0000493 115.8605 244.2447 15.30184377 36070
63716,STARLINK-33749,2025-12-13T23:33:12.018240,2025-12-14T13:04:14.456627,53.1579,257.9213,7.72e-05,64.1423,295.9658,15.30188269,-10895-2,3607,1 63716U 25087V   25347.98138910 -.00032474  00000+0 -10895-2 0  9991,2 63716  53.1579 257.9213 0000772  64.1423 295.9658 15.30188269 36073
63717,STARLINK-33725,2025-12-13T22:46:05.463840,2025-12-14T13:04:14.456627,53.1609,257.7157,9.35e-05,53.2297,306.879,15.30172997,12617-2,3607,1 63717U 25087W   25347.94867435  .00037165  00000+0  12617-2 0  9993,2 63717  53.1609 257.7157 0000935  53.2297 306.8790 15.30172997 36072
63718,STARLINK-33641,2025-12-13T23:08:53.389248,2025-12-14T13:04:14.456627,53.1596,257.8138,0.0001371,35.3449,324.7642,15.30146776,14260-2,3607,1 63718U 25087X   25347.96450682  .00042044  00000+0  14260-2 0  9996,2 63718  53.1596 257.8138 0001371  35.3449 324.7642 15.30146776 36074
63719,STARLINK-33727,2025-12-13T22:27:51.212160,2025-12-14T13:04:14.456627,53.1608,257.6412,0.0001609,112.2881,247.829,15.30151886,95298-3,3607,1 63719U 25087Y   25347.93600940  .00027930  00000+0  95298-3 0  9996,2 63719  53.1608 257.6412 0001609 112.2881 247.8290 15.30151886 36073
63720,STARLINK-33757,2025-12-13T23:01:16.950144,2025-12-14T13:04:14.456627,53.1606,257.7799,6.38e-05,132.9381,227.1674,15.30254879,14106-2,3607,1 63720U 25087Z   25347.95922396  .00041724  00000+0  14106-2 0  9997,2 63720  53.1606 257.7799 0000638 132.9381 227.1674 15.30254879 36070
63721,STARLINK-33774,2025-12-13T23:22:33.708864,2025-12-14T13:04:14.456627,53.1585,257.8772,0.0001012,36.5898,323.5172,15.30256017,15437-2,3607,1 63721U 25087AA  25347.97400126  .00045721  00000+0  15437-2 0  9991,2 63721  53.1585 257.8772 0001012  36.5898 323.5172 15.30256017 36078
63722,STARLINK-33767,2025-12-13T22:43:02.942976,2025-12-14T13:04:14.456627,53.1607,257.7004,0.0002243,27.506,332.6059,15.30142954,17755-3,3607,1 63722U 25087AB  25347.94656184  .00004893  00000+0  17755-3 0  9997,2 63722  53.1607 257.7004 0002243  27.5060 332.6059 15.30142954 36078
63723,STARLINK-33806,2025-12-13T22:52:10.324128,2025-12-14T13:04:14.456627,53.1609,257.7412,0.0001389,56.7844,303.329,15.301754,14057-2,3607,1 63723U 25087AC  25347.95289727  .00041476  00000+0  14057-2 0  9993,2 63723  53.1609 257.7412 0001389  56.7844 303.3290 15.30175400 36072
63751,STARLINK-11677 [DTC],2025-12-13T08:30:22.556736,2025-12-14T13:04:14.456627,42.9985,92.964,0.0002756,281.0845,78.9712,15.70864799,22004-2,3655,1 63751U 25089A   25347.35442774  .00292374  00000+0  22004-2 0  9999,2 63751  42.9985  92.9640 0002756 281.0845  78.9712 15.70864799 36558
63752,STARLINK-11702 [DTC],2025-12-13T18:33:04.485312,2025-12-14T13:04:14.456627,42.9984,90.0682,0.0001931,252.2499,107.8158,15.70827217,56152-3,3662,1 63752U 25089B   25347.77296858  .00072194  00000+0  56152-3 0  9994,2 63752  42.9984  90.0682 0001931 252.2499 107.8158 15.70827217 36620
63753,STARLINK-11706 [DTC],2025-12-13T13:35:26.884032,2025-12-14T13:04:14.456627,42.9996,91.0894,0.0001465,232.6402,127.4332,15.70869039,15695-2,3659,1 63753U 25089C   25347.56628338  .00206271  00000+0  15695-2 0  9995,2 63753  42.9996  91.0894 0001465 232.6402 127.4332 15.70869039 36594
63754,STARLINK-11662 [DTC],2025-12-13T17:16:48.284256,2025-12-14T13:04:14.456627,42.9995,90.5363,0.00018,286.0963,73.9707,15.70781244,19924-2,3666,1 63754U 25089D   25347.72000329  .00262799  00000+0  19924-2 0  9994,2 63754  42.9995  90.5363 0001800 286.0963  73.9707 15.70781244 36667
63755,STARLINK-11681 [DTC],2025-12-13T17:32:05.714016,2025-12-14T13:04:14.456627,42.9994,90.6215,0.0002152,270.9107,89.1514,15.70918206,23878-2,3661,1 63755U 25089E   25347.73062169  .00319036  00000+0  23878-2 0  9996,2 63755  42.9994  90.6215 0002152 270.9107  89.1514 15.70918206 36617
63756,STARLINK-11688 [DTC],2025-12-13T15:37:35.389056,2025-12-14T13:04:14.456627,43.0005,90.8767,0.0002607,271.7782,88.2787,15.70892468,11659-2,3649,1 63756U 25089F   25347.65110404  .00152273  00000+0  11659-2 0  9996,2 63756  43.0005  90.8767 0002607 271.7782  88.2787 15.70892468 36499
